STARLINK-31475          
1 59310U 24056Q   26068.44160918  .00000323  00000+0  21269-4 0  9991
2 59310  43.0040 228.8918 0001383 247.8741 112.1964 15.27574143111272
2025-313BE              
1 67482U 25313BE  26068.69721505  .00077178  00000+0  26504-2 0  9996
2 67482  97.3989 145.3568 0007208 335.3714  24.7181 15.29801687  7972
